[
    {
        "Altitude(m)": 569876.3850013375,
        "Argument of Periapsis(deg)": 0.019868973332140504,
        "Eccentricity": 0.0,
        "Inclination(deg)": 53.0,
        "Latitude(deg)": -48.159704625539476,
        "Longitude(deg)": -145.55438679972585,
        "Mean Anomaly(deg)": 248.4566786027328,
        "RAAN(deg)": 79.97043010558404,
        "Satellite Name": "Starlink Shell 1 365",
        "Satellite Number": 365,
        "Semi-Major Axis(m)": 6931778.249405717,
        "Time(s)": 570
    },
    {
        "Altitude(m)": 569985.302185444,
        "Argument of Periapsis(deg)": 0.02021755181165174,
        "Eccentricity": 0.0,
        "Inclination(deg)": 53.0,
        "Latitude(deg)": -48.42996339015424,
        "Longitude(deg)": -144.7508165769951,
        "Mean Anomaly(deg)": 249.08350980628947,
        "RAAN(deg)": 79.96991133550658,
        "Satellite Name": "Starlink Shell 1 365",
        "Satellite Number": 365,
        "Semi-Major Axis(m)": 6931778.249405717,
        "Time(s)": 580
    },
    {
        "Altitude(m)": 570091.4789031852,
        "Argument of Periapsis(deg)": 0.020566130291162974,
        "Eccentricity": 0.0,
        "Inclination(deg)": 53.0,
        "Latitude(deg)": -48.6939400571891,
        "Longitude(deg)": -143.9383630036317,
        "Mean Anomaly(deg)": 249.71034100984622,
        "RAAN(deg)": 79.9693925654291,
        "Satellite Name": "Starlink Shell 1 365",
        "Satellite Number": 365,
        "Semi-Major Axis(m)": 6931778.249405717,
        "Time(s)": 590
    },
    {
        "Altitude(m)": 570194.8730222532,
        "Argument of Periapsis(deg)": 0.020914708770674213,
        "Eccentricity": 0.0,
        "Inclination(deg)": 53.0,
        "Latitude(deg)": -48.951511536791024,
        "Longitude(deg)": -143.11706446559356,
        "Mean Anomaly(deg)": 250.33717221340294,
        "RAAN(deg)": 79.96887379535163,
        "Satellite Name": "Starlink Shell 1 365",
        "Satellite Number": 365,
        "Semi-Major Axis(m)": 6931778.249405717,
        "Time(s)": 600
    },
    {
        "Altitude(m)": 570295.443496603,
        "Argument of Periapsis(deg)": 0.021263287250185448,
        "Eccentricity": 0.0,
        "Inclination(deg)": 53.0,
        "Latitude(deg)": -49.202554695044434,
        "Longitude(deg)": -142.2869719459786,
        "Mean Anomaly(deg)": 250.96400341695963,
        "RAAN(deg)": 79.96835502527416,
        "Satellite Name": "Starlink Shell 1 365",
        "Satellite Number": 365,
        "Semi-Major Axis(m)": 6931778.249405717,
        "Time(s)": 610
    },
    {
        "Altitude(m)": 570393.1503843411,
        "Argument of Periapsis(deg)": 0.021611865729696686,
        "Eccentricity": 0.0,
        "Inclination(deg)": 53.0,
        "Latitude(deg)": -49.44694654633826,
        "Longitude(deg)": -141.44814902552753,
        "Mean Anomaly(deg)": 251.59083462051635,
        "RAAN(deg)": 79.96783625519667,
        "Satellite Name": "Starlink Shell 1 365",
        "Satellite Number": 365,
        "Semi-Major Axis(m)": 6931778.249405717,
        "Time(s)": 620
    },
    {
        "Altitude(m)": 570487.9548651385,
        "Argument of Periapsis(deg)": 0.02196044420920792,
        "Eccentricity": 0.0,
        "Inclination(deg)": 53.0,
        "Latitude(deg)": -49.68456445648151,
        "Longitude(deg)": -140.6006735431207,
        "Mean Anomaly(deg)": 252.21766582407304,
        "RAAN(deg)": 79.96731748511921,
        "Satellite Name": "Starlink Shell 1 365",
        "Satellite Number": 365,
        "Semi-Major Axis(m)": 6931778.249405717,
        "Time(s)": 630
    },
    {
        "Altitude(m)": 570579.8192571641,
        "Argument of Periapsis(deg)": 0.02230902268871916,
        "Eccentricity": 0.0,
        "Inclination(deg)": 53.0,
        "Latitude(deg)": -49.91528635631905,
        "Longitude(deg)": -139.7446367092205,
        "Mean Anomaly(deg)": 252.8444970276298,
        "RAAN(deg)": 79.96679871504173,
        "Satellite Name": "Starlink Shell 1 365",
        "Satellite Number": 365,
        "Semi-Major Axis(m)": 6931778.249405717,
        "Time(s)": 640
    },
    {
        "Altitude(m)": 570668.7070334798,
        "Argument of Periapsis(deg)": 0.022657601168230398,
        "Eccentricity": 0.0,
        "Inclination(deg)": 53.0,
        "Latitude(deg)": -50.138990965483025,
        "Longitude(deg)": -138.88014471038494,
        "Mean Anomaly(deg)": 253.4713282311865,
        "RAAN(deg)": 79.96627994496426,
        "Satellite Name": "Starlink Shell 1 365",
        "Satellite Number": 365,
        "Semi-Major Axis(m)": 6931778.249405717,
        "Time(s)": 650
    },
    {
        "Altitude(m)": 570754.5828379446,
        "Argument of Periapsis(deg)": 0.023006179647741636,
        "Eccentricity": 0.0,
        "Inclination(deg)": 53.0,
        "Latitude(deg)": -50.35555802583015,
        "Longitude(deg)": -138.00731859747236,
        "Mean Anomaly(deg)": 254.0981594347432,
        "RAAN(deg)": 79.9657611748868,
        "Satellite Name": "Starlink Shell 1 365",
        "Satellite Number": 365,
        "Semi-Major Axis(m)": 6931778.249405717,
        "Time(s)": 660
    },
    {
        "Altitude(m)": 570837.4125006039,
        "Argument of Periapsis(deg)": 0.023354758127252868,
        "Eccentricity": 0.0,
        "Inclination(deg)": 53.0,
        "Latitude(deg)": -50.5648685439958,
        "Longitude(deg)": -137.12629413346747,
        "Mean Anomaly(deg)": 254.72499063829994,
        "RAAN(deg)": 79.96524240480932,
        "Satellite Name": "Starlink Shell 1 365",
        "Satellite Number": 365,
        "Semi-Major Axis(m)": 6931778.249405717,
        "Time(s)": 670
    },
    {
        "Altitude(m)": 570917.1630525527,
        "Argument of Periapsis(deg)": 0.023703336606764106,
        "Eccentricity": 0.0,
        "Inclination(deg)": 53.0,
        "Latitude(deg)": -50.766805042384945,
        "Longitude(deg)": -136.2372231087083,
        "Mean Anomaly(deg)": 255.35182184185663,
        "RAAN(deg)": 79.96472363473184,
        "Satellite Name": "Starlink Shell 1 365",
        "Satellite Number": 365,
        "Semi-Major Axis(m)": 6931778.249405717,
        "Time(s)": 680
    },
    {
        "Altitude(m)": 570993.802740266,
        "Argument of Periapsis(deg)": 0.024051915086275345,
        "Eccentricity": 0.0,
        "Inclination(deg)": 53.0,
        "Latitude(deg)": -50.9612518178122,
        "Longitude(deg)": -135.3402730926757,
        "Mean Anomaly(deg)": 255.97865304541332,
        "RAAN(deg)": 79.96420486465438,
        "Satellite Name": "Starlink Shell 1 365",
        "Satellite Number": 365,
        "Semi-Major Axis(m)": 6931778.249405717,
        "Time(s)": 690
    },
    {
        "Altitude(m)": 571067.301039388,
        "Argument of Periapsis(deg)": 0.024400493565786583,
        "Eccentricity": 0.0,
        "Inclination(deg)": 53.0,
        "Latitude(deg)": -51.148095206880946,
        "Longitude(deg)": -134.4356271302016,
        "Mean Anomaly(deg)": 256.6054842489701,
        "RAAN(deg)": 79.9636860945769,
        "Satellite Name": "Starlink Shell 1 365",
        "Satellite Number": 365,
        "Semi-Major Axis(m)": 6931778.249405717,
        "Time(s)": 700
    },
    {
        "Altitude(m)": 571137.6286680216,
        "Argument of Periapsis(deg)": 0.024749072045297815,
        "Eccentricity": 0.0,
        "Inclination(deg)": 53.0,
        "Latitude(deg)": -51.327223857073975,
        "Longitude(deg)": -133.52348489009867,
        "Mean Anomaly(deg)": 257.2323154525268,
        "RAAN(deg)": 79.96316732449942,
        "Satellite Name": "Starlink Shell 1 365",
        "Satellite Number": 365,
        "Semi-Major Axis(m)": 6931778.249405717,
        "Time(s)": 710
    },
    {
        "Altitude(m)": 571204.757599406,
        "Argument of Periapsis(deg)": 0.025097650524809053,
        "Eccentricity": 0.0,
        "Inclination(deg)": 53.0,
        "Latitude(deg)": -51.49852900242349,
        "Longitude(deg)": -132.60406223578735,
        "Mean Anomaly(deg)": 257.85914665608345,
        "RAAN(deg)": 79.96264855442195,
        "Satellite Name": "Starlink Shell 1 365",
        "Satellite Number": 365,
        "Semi-Major Axis(m)": 6931778.249405717,
        "Time(s)": 720
    },
    {
        "Altitude(m)": 571268.6610741038,
        "Argument of Periapsis(deg)": 0.02544622900432029,
        "Eccentricity": 0.0,
        "Inclination(deg)": 53.0,
        "Latitude(deg)": -51.66190474250763,
        "Longitude(deg)": -131.67759072642815,
        "Mean Anomaly(deg)": 258.48597785964023,
        "RAAN(deg)": 79.96212978434448,
        "Satellite Name": "Starlink Shell 1 365",
        "Satellite Number": 365,
        "Semi-Major Axis(m)": 6931778.249405717,
        "Time(s)": 730
    },
    {
        "Altitude(m)": 571329.3136116136,
        "Argument of Periapsis(deg)": 0.02579480748383153,
        "Eccentricity": 0.0,
        "Inclination(deg)": 53.0,
        "Latitude(deg)": -51.81724832341865,
        "Longitude(deg)": -130.74431855742168,
        "Mean Anomaly(deg)": 259.11280906319695,
        "RAAN(deg)": 79.961611014267,
        "Satellite Name": "Starlink Shell 1 365",
        "Satellite Number": 365,
        "Semi-Major Axis(m)": 6931778.249405717,
        "Time(s)": 740
    },
    {
        "Altitude(m)": 571386.6910214188,
        "Argument of Periapsis(deg)": 0.026143385963342765,
        "Eccentricity": 0.0,
        "Inclination(deg)": 53.0,
        "Latitude(deg)": -51.964460419254394,
        "Longitude(deg)": -129.80450991096657,
        "Mean Anomaly(deg)": 259.7396402667536,
        "RAAN(deg)": 79.96109224418953,
        "Satellite Name": "Starlink Shell 1 365",
        "Satellite Number": 365,
        "Semi-Major Axis(m)": 6931778.249405717,
        "Time(s)": 750
    }
]